{"fetched_at":"2026-07-12T07:15:23.207Z","source":"https://celestrak.org/NORAD/elements/gp.php?GROUP=spire&FORMAT=JSON","constellation":"spire","records":[{"OBJECT_NAME":"LEMUR-1","OBJECT_ID":"2014-033AL","EPOCH":"2026-07-11T21:11:51.418464","CLASSIFICATION_TYPE":"U","MEAN_MOTION":14.85331099,"ECCENTRICITY":0.0048047,"INCLINATION":97.7903,"RA_OF_ASC_NODE":342.1444,"ARG_OF_PERICENTER":358.865,"MEAN_ANOMALY":1.2448,"EPHEMERIS_TYPE":0,"NORAD_CAT_ID":40044,"ELEMENT_SET_NO":999,"REV_AT_EPOCH":64913,"BSTAR":0.00010758553,"MEAN_MOTION_DOT":0.00000888,"MEAN_MOTION_DDOT":0},{"OBJECT_NAME":"LEMUR-2-GREENBERG","OBJECT_ID":"2017-042N","EPOCH":"2026-07-09T11:53:19.376160","CLASSIFICATION_TYPE":"U","MEAN_MOTION":15.32031511,"ECCENTRICITY":0.00071356,"INCLINATION":97.3831,"RA_OF_ASC_NODE":11.0293,"ARG_OF_PERICENTER":283.6729,"MEAN_ANOMALY":76.3718,"EPHEMERIS_TYPE":0,"NORAD_CAT_ID":42837,"ELEMENT_SET_NO":999,"REV_AT_EPOCH":49180,"BSTAR":0.0003749711,"MEAN_MOTION_DOT":0.00011532,"MEAN_MOTION_DDOT":0},{"OBJECT_NAME":"LEMUR-2-ANDIS","OBJECT_ID":"2017-042P","EPOCH":"2026-07-11T18:03:36.826848","CLASSIFICATION_TYPE":"U","MEAN_MOTION":15.35830402,"ECCENTRICITY":0.00071288,"INCLINATION":97.3677,"RA_OF_ASC_NODE":13.5506,"ARG_OF_PERICENTER":272.8241,"MEAN_ANOMALY":87.2186,"EPHEMERIS_TYPE":0,"NORAD_CAT_ID":42838,"ELEMENT_SET_NO":999,"REV_AT_EPOCH":49222,"BSTAR":0.00035908578,"MEAN_MOTION_DOT":0.00012453,"MEAN_MOTION_DDOT":0},{"OBJECT_NAME":"LEMUR-2-MONSON","OBJECT_ID":"2017-042Q","EPOCH":"2026-07-10T11:15:45.883584","CLASSIFICATION_TYPE":"U","MEAN_MOTION":15.28674858,"ECCENTRICITY":0.00051568,"INCLINATION":97.4089,"RA_OF_ASC_NODE":11.9359,"ARG_OF_PERICENTER":266.7916,"MEAN_ANOMALY":93.2733,"EPHEMERIS_TYPE":0,"NORAD_CAT_ID":42839,"ELEMENT_SET_NO":999,"REV_AT_EPOCH":49172,"BSTAR":0.00034676682,"MEAN_MOTION_DOT":0.000096,"MEAN_MOTION_DDOT":0},{"OBJECT_NAME":"LEMUR-2-FURIAUS","OBJECT_ID":"2017-042R","EPOCH":"2026-07-10T17:54:39.577824","CLASSIFICATION_TYPE":"U","MEAN_MOTION":15.31036825,"ECCENTRICITY":0.00063598,"INCLINATION":97.3778,"RA_OF_ASC_NODE":10.1778,"ARG_OF_PERICENTER":347.2297,"MEAN_ANOMALY":12.8782,"EPHEMERIS_TYPE":0,"NORAD_CAT_ID":42840,"ELEMENT_SET_NO":999,"REV_AT_EPOCH":49181,"BSTAR":0.00040490136,"MEAN_MOTION_DOT":0.00012077,"MEAN_MOTION_DDOT":0},{"OBJECT_NAME":"LEMUR-2-PETERG","OBJECT_ID":"2017-042S","EPOCH":"2026-07-11T21:09:44.995392","CLASSIFICATION_TYPE":"U","MEAN_MOTION":15.34947821,"ECCENTRICITY":0.00030925,"INCLINATION":97.3991,"RA_OF_ASC_NODE":17.9712,"ARG_OF_PERICENTER":234.8644,"MEAN_ANOMALY":125.231,"EPHEMERIS_TYPE":0,"NORAD_CAT_ID":42841,"ELEMENT_SET_NO":999,"REV_AT_EPOCH":49222,"BSTAR":0.00035558802,"MEAN_MOTION_DOT":0.0001198,"MEAN_MOTION_DDOT":0},{"OBJECT_NAME":"LEMUR-2-DEMBITZ","OBJECT_ID":"2017-042T","EPOCH":"2026-07-11T11:38:16.488384","CLASSIFICATION_TYPE":"U","MEAN_MOTION":15.31034137,"ECCENTRICITY":0.00050207,"INCLINATION":97.3826,"RA_OF_ASC_NODE":13.9535,"ARG_OF_PERICENTER":291.4687,"MEAN_ANOMALY":68.6018,"EPHEMERIS_TYPE":0,"NORAD_CAT_ID":42842,"ELEMENT_SET_NO":999,"REV_AT_EPOCH":49206,"BSTAR":0.00030474705,"MEAN_MOTION_DOT":0.00009065,"MEAN_MOTION_DDOT":0},{"OBJECT_NAME":"LEMUR-2-ZACHARY","OBJECT_ID":"2017-042W","EPOCH":"2026-07-11T18:21:57.867840","CLASSIFICATION_TYPE":"U","MEAN_MOTION":15.52486995,"ECCENTRICITY":0.00024338,"INCLINATION":97.3581,"RA_OF_ASC_NODE":24.963,"ARG_OF_PERICENTER":265.2719,"MEAN_ANOMALY":94.8256,"EPHEMERIS_TYPE":0,"NORAD_CAT_ID":42845,"ELEMENT_SET_NO":999,"REV_AT_EPOCH":49301,"BSTAR":0.00051731064,"MEAN_MOTION_DOT":0.00031651,"MEAN_MOTION_DDOT":0},{"OBJECT_NAME":"LEMUR-2-AMANDA-SVANTE","OBJECT_ID":"2021-034B","EPOCH":"2026-07-11T22:23:01.371264","CLASSIFICATION_TYPE":"U","MEAN_MOTION":15.35822626,"ECCENTRICITY":0.00044974,"INCLINATION":97.5758,"RA_OF_ASC_NODE":271.8961,"ARG_OF_PERICENTER":151.4014,"MEAN_ANOMALY":208.7477,"EPHEMERIS_TYPE":0,"NORAD_CAT_ID":48269,"ELEMENT_SET_NO":999,"REV_AT_EPOCH":28485,"BSTAR":0.00060136314,"MEAN_MOTION_DOT":0.00020915,"MEAN_MOTION_DDOT":0},{"OBJECT_NAME":"LEMUR-2-SPECIAL-K","OBJECT_ID":"2021-034F","EPOCH":"2026-07-11T18:34:00.361056","CLASSIFICATION_TYPE":"U","MEAN_MOTION":15.73471129,"ECCENTRICITY":0.00068636,"INCLINATION":97.5609,"RA_OF_ASC_NODE":281.5708,"ARG_OF_PERICENTER":215.577,"MEAN_ANOMALY":144.5037,"EPHEMERIS_TYPE":0,"NORAD_CAT_ID":48273,"ELEMENT_SET_NO":999,"REV_AT_EPOCH":28554,"BSTAR":0.0011554558,"MEAN_MOTION_DOT":0.00163262,"MEAN_MOTION_DDOT":0},{"OBJECT_NAME":"LEMUR-2-EMBRIONOVIS","OBJECT_ID":"2023-084AQ","EPOCH":"2026-07-11T20:41:40.628256","CLASSIFICATION_TYPE":"U","MEAN_MOTION":15.38173955,"ECCENTRICITY":0.00080447,"INCLINATION":97.6309,"RA_OF_ASC_NODE":338.0236,"ARG_OF_PERICENTER":219.423,"MEAN_ANOMALY":140.643,"EPHEMERIS_TYPE":0,"NORAD_CAT_ID":56970,"ELEMENT_SET_NO":999,"REV_AT_EPOCH":17147,"BSTAR":0.00024216305,"MEAN_MOTION_DOT":0.00009025,"MEAN_MOTION_DDOT":0},{"OBJECT_NAME":"LEMUR-2-DEVERILL-M-T","OBJECT_ID":"2023-100F","EPOCH":"2026-07-11T15:49:51.326112","CLASSIFICATION_TYPE":"U","MEAN_MOTION":15.40974428,"ECCENTRICITY":0.00046842,"INCLINATION":99.4462,"RA_OF_ASC_NODE":238.5083,"ARG_OF_PERICENTER":310.9621,"MEAN_ANOMALY":49.1213,"EPHEMERIS_TYPE":0,"NORAD_CAT_ID":57391,"ELEMENT_SET_NO":999,"REV_AT_EPOCH":16501,"BSTAR":0.00039957431,"MEAN_MOTION_DOT":0.00016364,"MEAN_MOTION_DDOT":0},{"OBJECT_NAME":"LEMUR-2-BASS","OBJECT_ID":"2023-174D","EPOCH":"2026-07-11T21:50:59.071488","CLASSIFICATION_TYPE":"U","MEAN_MOTION":15.43920448,"ECCENTRICITY":0.00078072,"INCLINATION":97.3849,"RA_OF_ASC_NODE":277.9809,"ARG_OF_PERICENTER":87.9937,"MEAN_ANOMALY":272.2205,"EPHEMERIS_TYPE":0,"NORAD_CAT_ID":58259,"ELEMENT_SET_NO":999,"REV_AT_EPOCH":14917,"BSTAR":0.00024902651,"MEAN_MOTION_DOT":0.00011245,"MEAN_MOTION_DDOT":0},{"OBJECT_NAME":"LEMUR-2-JK0903EM1407","OBJECT_ID":"2023-174CJ","EPOCH":"2026-07-11T21:32:03.473088","CLASSIFICATION_TYPE":"U","MEAN_MOTION":15.52949077,"ECCENTRICITY":0.00039273,"INCLINATION":97.3923,"RA_OF_ASC_NODE":284.0857,"ARG_OF_PERICENTER":44.538,"MEAN_ANOMALY":315.6188,"EPHEMERIS_TYPE":0,"NORAD_CAT_ID":58336,"ELEMENT_SET_NO":999,"REV_AT_EPOCH":14956,"BSTAR":0.00027838037,"MEAN_MOTION_DOT":0.00017244,"MEAN_MOTION_DDOT":0},{"OBJECT_NAME":"LEMUR-2-MJR092620","OBJECT_ID":"2023-174CN","EPOCH":"2026-07-11T19:54:56.519712","CLASSIFICATION_TYPE":"U","MEAN_MOTION":15.45780247,"ECCENTRICITY":0.00056048,"INCLINATION":97.398,"RA_OF_ASC_NODE":283.3273,"ARG_OF_PERICENTER":41.1217,"MEAN_ANOMALY":319.0454,"EPHEMERIS_TYPE":0,"NORAD_CAT_ID":58340,"ELEMENT_SET_NO":999,"REV_AT_EPOCH":14945,"BSTAR":0.00024620562,"MEAN_MOTION_DOT":0.00011838,"MEAN_MOTION_DDOT":0},{"OBJECT_NAME":"LEMUR-2-NIMBUS2000","OBJECT_ID":"2024-022A","EPOCH":"2026-07-11T13:37:01.031520","CLASSIFICATION_TYPE":"U","MEAN_MOTION":15.41012849,"ECCENTRICITY":0.00091209,"INCLINATION":97.4092,"RA_OF_ASC_NODE":42.8889,"ARG_OF_PERICENTER":40.654,"MEAN_ANOMALY":319.5386,"EPHEMERIS_TYPE":0,"NORAD_CAT_ID":58899,"ELEMENT_SET_NO":999,"REV_AT_EPOCH":13602,"BSTAR":0.00032239822,"MEAN_MOTION_DOT":0.00013238,"MEAN_MOTION_DDOT":0}]}
